[{"OBJECT_NAME":"TIANMU-1 19","OBJECT_ID":"2023-208A","EPOCH":"2026-03-09T22:13:36.801696","MEAN_MOTION":15.2984143,"ECCENTRICITY":0.00039292,"INCLINATION":97.4383,"RA_OF_ASC_NODE":184.9132,"ARG_OF_PERICENTER":316.2611,"MEAN_ANOMALY":43.8317,"EPHEMERIS_TYPE":0,"CLASSIFICATION_TYPE":"U","NORAD_CAT_ID":58660,"ELEMENT_SET_NO":999,"REV_AT_EPOCH":12214,"BSTAR":0.00040995676,"MEAN_MOTION_DOT":0.00011779,"MEAN_MOTION_DDOT":0},{"OBJECT_NAME":"STARLINK-31937","OBJECT_ID":"2024-098P","EPOCH":"2026-03-09T12:57:36.811296","MEAN_MOTION":15.27569362,"ECCENTRICITY":9.63e-5,"INCLINATION":43.0016,"RA_OF_ASC_NODE":271.8857,"ARG_OF_PERICENTER":267.4431,"MEAN_ANOMALY":92.631,"EPHEMERIS_TYPE":0,"CLASSIFICATION_TYPE":"U","NORAD_CAT_ID":59871,"ELEMENT_SET_NO":999,"REV_AT_EPOCH":10190,"BSTAR":-3.6278693e-5,"MEAN_MOTION_DOT":-1.26e-5,"MEAN_MOTION_DDOT":0}]
